STARLINK-36610          
1 67637U 26020W   26039.83335647 -.01838680  00000+0 -86283-2 0  9992
2 67637  42.9996 317.5285 0001633 266.9666  34.2046 15.84981165  2756
STARLINK-36599          
1 67638U 26020X   26039.83335647 -.01846989  00000+0 -85869-2 0  9993
2 67638  42.9994 317.5179 0001665 253.8736  51.4753 15.85184287  2752
STARLINK-36595          
1 67639U 26020Y   26039.83335647 -.01840726  00000+0 -84752-2 0  9997
2 67639  42.9994 317.5081 0001869 255.9351  53.3415 15.85369675  2759
STARLINK-36570          
1 67640U 26020Z   26039.83335647 -.01840522  00000+0 -84193-2 0  9992
2 67640  42.9993 317.5004 0001840 255.5691  56.6342 15.85502263  2754
STARLINK-36514          
1 67641U 26020AA  26039.83335647 -.01789550  00000+0 -81976-2 0  9992
2 67641  42.9993 317.4793 0001748 255.6953  64.8771 15.85897006  2757
STARLINK-36556          
1 67642U 26020AB  26039.83335647 -.01943652  00000+0 -87108-2 0  9991
2 67642  42.9993 317.4711 0002025 247.7812  75.9414 15.86075940  2756
STARLINK-36533          
1 67643U 26020AC  26039.83335647 -.01793295  00000+0 -83017-2 0  9993
2 67643  42.9993 317.4900 0001750 261.8941  54.3451 15.85691312  2759
STARLINK-36623          
1 67644U 26020AD  26039.83335647 -.01791414  00000+0 -79909-2 0  9990
2 67644  42.9992 317.4503 0001797 259.7803  72.0962 15.86435608  2751
STARLINK-36619          
1 67645U 26020AE  26039.83335647 -.01788163  00000+0 -80458-2 0  9999
2 67645  42.9991 317.4599 0001846 258.3095  69.7952 15.86254393  2751
ALSAT-3B                
1 67646U 26021A   26039.81587882  .00007604  00000+0  32094-3 0  9994
2 67646  97.4721 114.2760 0011584 232.8832 127.1347 15.23506626  1326
CZ-2C R/B               
1 67647U 26021B   26039.81814208  .00015186  00000+0  46026-3 0  9994
2 67647  97.6561 114.7045 0153996 111.5004 250.2730 15.23285915  1307
STARLINK-36719          
1 67648U 26022A   26039.83335647 -.01571047  73966-3 -35023-2 0  9998
2 67648  97.2833  72.2568 0001489  77.6653  70.2179 15.97951876  2254
