CCSDS_OMM_VERS = 2.0
CREATION_DATE  = 
ORIGINATOR     = 

OBJECT_NAME    = STARLINK-36610
OBJECT_ID      = 2026-020W
CENTER_NAME    = EARTH
REF_FRAME      = TEME
TIME_SYSTEM    = UTC
MEAN_ELEMENT_THEORY = SGP/SGP4

EPOCH          = 2026-02-08T20:00:01.999008
MEAN_MOTION    = 15.84981165
ECCENTRICITY   = .0001633
INCLINATION    = 42.9996
RA_OF_ASC_NODE = 317.5285
ARG_OF_PERICENTER = 266.9666
MEAN_ANOMALY   = 34.2046

EPHEMERIS_TYPE = 0
CLASSIFICATION_TYPE = U
NORAD_CAT_ID   = 67637
ELEMENT_SET_NO = 999
REV_AT_EPOCH   = 275
BSTAR          = -.86283E-2
MEAN_MOTION_DOT = -.183868E-1
MEAN_MOTION_DDOT = 0

CCSDS_OMM_VERS = 2.0
CREATION_DATE  = 
ORIGINATOR     = 

OBJECT_NAME    = STARLINK-36599
OBJECT_ID      = 2026-020X
CENTER_NAME    = EARTH
REF_FRAME      = TEME
TIME_SYSTEM    = UTC
MEAN_ELEMENT_THEORY = SGP/SGP4

EPOCH          = 2026-02-08T20:00:01.999008
MEAN_MOTION    = 15.85184287
ECCENTRICITY   = .0001665
INCLINATION    = 42.9994
RA_OF_ASC_NODE = 317.5179
ARG_OF_PERICENTER = 253.8736
MEAN_ANOMALY   = 51.4753

EPHEMERIS_TYPE = 0
CLASSIFICATION_TYPE = U
NORAD_CAT_ID   = 67638
ELEMENT_SET_NO = 999
REV_AT_EPOCH   = 275
BSTAR          = -.85869E-2
MEAN_MOTION_DOT = -.1846989E-1
MEAN_MOTION_DDOT = 0

CCSDS_OMM_VERS = 2.0
CREATION_DATE  = 
ORIGINATOR     = 

OBJECT_NAME    = STARLINK-36595
OBJECT_ID      = 2026-020Y
CENTER_NAME    = EARTH
REF_FRAME      = TEME
TIME_SYSTEM    = UTC
MEAN_ELEMENT_THEORY = SGP/SGP4

EPOCH          = 2026-02-08T20:00:01.999008
MEAN_MOTION    = 15.85369675
ECCENTRICITY   = .0001869
INCLINATION    = 42.9994
RA_OF_ASC_NODE = 317.5081
ARG_OF_PERICENTER = 255.9351
MEAN_ANOMALY   = 53.3415

EPHEMERIS_TYPE = 0
CLASSIFICATION_TYPE = U
NORAD_CAT_ID   = 67639
ELEMENT_SET_NO = 999
REV_AT_EPOCH   = 275
BSTAR          = -.84752E-2
MEAN_MOTION_DOT = -.1840726E-1
MEAN_MOTION_DDOT = 0

CCSDS_OMM_VERS = 2.0
CREATION_DATE  = 
ORIGINATOR     = 

OBJECT_NAME    = STARLINK-36570
OBJECT_ID      = 2026-020Z
CENTER_NAME    = EARTH
REF_FRAME      = TEME
TIME_SYSTEM    = UTC
MEAN_ELEMENT_THEORY = SGP/SGP4

EPOCH          = 2026-02-08T20:00:01.999008
MEAN_MOTION    = 15.85502263
ECCENTRICITY   = .000184
INCLINATION    = 42.9993
RA_OF_ASC_NODE = 317.5004
ARG_OF_PERICENTER = 255.5691
MEAN_ANOMALY   = 56.6342

EPHEMERIS_TYPE = 0
CLASSIFICATION_TYPE = U
NORAD_CAT_ID   = 67640
ELEMENT_SET_NO = 999
REV_AT_EPOCH   = 275
BSTAR          = -.84193E-2
MEAN_MOTION_DOT = -.1840522E-1
MEAN_MOTION_DDOT = 0

CCSDS_OMM_VERS = 2.0
CREATION_DATE  = 
ORIGINATOR     = 

OBJECT_NAME    = STARLINK-36514
OBJECT_ID      = 2026-020AA
CENTER_NAME    = EARTH
REF_FRAME      = TEME
TIME_SYSTEM    = UTC
MEAN_ELEMENT_THEORY = SGP/SGP4

EPOCH          = 2026-02-08T20:00:01.999008
MEAN_MOTION    = 15.85897006
ECCENTRICITY   = .0001748
INCLINATION    = 42.9993
RA_OF_ASC_NODE = 317.4793
ARG_OF_PERICENTER = 255.6953
MEAN_ANOMALY   = 64.8771

EPHEMERIS_TYPE = 0
CLASSIFICATION_TYPE = U
NORAD_CAT_ID   = 67641
ELEMENT_SET_NO = 999
REV_AT_EPOCH   = 275
BSTAR          = -.81976E-2
MEAN_MOTION_DOT = -.178955E-1
MEAN_MOTION_DDOT = 0

CCSDS_OMM_VERS = 2.0
CREATION_DATE  = 
ORIGINATOR     = 

OBJECT_NAME    = STARLINK-36556
OBJECT_ID      = 2026-020AB
CENTER_NAME    = EARTH
REF_FRAME      = TEME
TIME_SYSTEM    = UTC
MEAN_ELEMENT_THEORY = SGP/SGP4

EPOCH          = 2026-02-08T20:00:01.999008
MEAN_MOTION    = 15.86075940
ECCENTRICITY   = .0002025
INCLINATION    = 42.9993
RA_OF_ASC_NODE = 317.4711
ARG_OF_PERICENTER = 247.7812
MEAN_ANOMALY   = 75.9414

EPHEMERIS_TYPE = 0
CLASSIFICATION_TYPE = U
NORAD_CAT_ID   = 67642
ELEMENT_SET_NO = 999
REV_AT_EPOCH   = 275
BSTAR          = -.87108E-2
MEAN_MOTION_DOT = -.1943652E-1
MEAN_MOTION_DDOT = 0

CCSDS_OMM_VERS = 2.0
CREATION_DATE  = 
ORIGINATOR     = 

OBJECT_NAME    = STARLINK-36533
OBJECT_ID      = 2026-020AC
CENTER_NAME    = EARTH
REF_FRAME      = TEME
TIME_SYSTEM    = UTC
MEAN_ELEMENT_THEORY = SGP/SGP4

EPOCH          = 2026-02-08T20:00:01.999008
MEAN_MOTION    = 15.85691312
ECCENTRICITY   = .000175
INCLINATION    = 42.9993
RA_OF_ASC_NODE = 317.4900
ARG_OF_PERICENTER = 261.8941
MEAN_ANOMALY   = 54.3451

EPHEMERIS_TYPE = 0
CLASSIFICATION_TYPE = U
NORAD_CAT_ID   = 67643
ELEMENT_SET_NO = 999
REV_AT_EPOCH   = 275
BSTAR          = -.83017E-2
MEAN_MOTION_DOT = -.1793295E-1
MEAN_MOTION_DDOT = 0

CCSDS_OMM_VERS = 2.0
CREATION_DATE  = 
ORIGINATOR     = 

OBJECT_NAME    = STARLINK-36623
OBJECT_ID      = 2026-020AD
CENTER_NAME    = EARTH
REF_FRAME      = TEME
TIME_SYSTEM    = UTC
MEAN_ELEMENT_THEORY = SGP/SGP4

EPOCH          = 2026-02-08T20:00:01.999008
MEAN_MOTION    = 15.86435608
ECCENTRICITY   = .0001797
INCLINATION    = 42.9992
RA_OF_ASC_NODE = 317.4503
ARG_OF_PERICENTER = 259.7803
MEAN_ANOMALY   = 72.0962

EPHEMERIS_TYPE = 0
CLASSIFICATION_TYPE = U
NORAD_CAT_ID   = 67644
ELEMENT_SET_NO = 999
REV_AT_EPOCH   = 275
BSTAR          = -.79909E-2
MEAN_MOTION_DOT = -.1791414E-1
MEAN_MOTION_DDOT = 0

CCSDS_OMM_VERS = 2.0
CREATION_DATE  = 
ORIGINATOR     = 

OBJECT_NAME    = STARLINK-36619
OBJECT_ID      = 2026-020AE
CENTER_NAME    = EARTH
REF_FRAME      = TEME
TIME_SYSTEM    = UTC
MEAN_ELEMENT_THEORY = SGP/SGP4

EPOCH          = 2026-02-08T20:00:01.999008
MEAN_MOTION    = 15.86254393
ECCENTRICITY   = .0001846
INCLINATION    = 42.9991
RA_OF_ASC_NODE = 317.4599
ARG_OF_PERICENTER = 258.3095
MEAN_ANOMALY   = 69.7952

EPHEMERIS_TYPE = 0
CLASSIFICATION_TYPE = U
NORAD_CAT_ID   = 67645
ELEMENT_SET_NO = 999
REV_AT_EPOCH   = 275
BSTAR          = -.80458E-2
MEAN_MOTION_DOT = -.1788163E-1
MEAN_MOTION_DDOT = 0

CCSDS_OMM_VERS = 2.0
CREATION_DATE  = 
ORIGINATOR     = 

OBJECT_NAME    = ALSAT-3B
OBJECT_ID      = 2026-021A
CENTER_NAME    = EARTH
REF_FRAME      = TEME
TIME_SYSTEM    = UTC
MEAN_ELEMENT_THEORY = SGP/SGP4

EPOCH          = 2026-02-08T19:34:51.930048
MEAN_MOTION    = 15.23506626
ECCENTRICITY   = .0011584
INCLINATION    = 97.4721
RA_OF_ASC_NODE = 114.2760
ARG_OF_PERICENTER = 232.8832
MEAN_ANOMALY   = 127.1347

EPHEMERIS_TYPE = 0
CLASSIFICATION_TYPE = U
NORAD_CAT_ID   = 67646
ELEMENT_SET_NO = 999
REV_AT_EPOCH   = 132
BSTAR          = .32094E-3
MEAN_MOTION_DOT = .7604E-4
MEAN_MOTION_DDOT = 0

CCSDS_OMM_VERS = 2.0
CREATION_DATE  = 
ORIGINATOR     = 

OBJECT_NAME    = CZ-2C R/B
OBJECT_ID      = 2026-021B
CENTER_NAME    = EARTH
REF_FRAME      = TEME
TIME_SYSTEM    = UTC
MEAN_ELEMENT_THEORY = SGP/SGP4

EPOCH          = 2026-02-08T19:38:07.475712
MEAN_MOTION    = 15.23285915
ECCENTRICITY   = .0153996
INCLINATION    = 97.6561
RA_OF_ASC_NODE = 114.7045
ARG_OF_PERICENTER = 111.5004
MEAN_ANOMALY   = 250.2730

EPHEMERIS_TYPE = 0
CLASSIFICATION_TYPE = U
NORAD_CAT_ID   = 67647
ELEMENT_SET_NO = 999
REV_AT_EPOCH   = 130
BSTAR          = .46026E-3
MEAN_MOTION_DOT = .15186E-3
MEAN_MOTION_DDOT = 0

CCSDS_OMM_VERS = 2.0
CREATION_DATE  = 
ORIGINATOR     = 

OBJECT_NAME    = STARLINK-36719
OBJECT_ID      = 2026-022A
CENTER_NAME    = EARTH
REF_FRAME      = TEME
TIME_SYSTEM    = UTC
MEAN_ELEMENT_THEORY = SGP/SGP4

EPOCH          = 2026-02-08T20:00:01.999008
MEAN_MOTION    = 15.97951876
ECCENTRICITY   = .0001489
INCLINATION    = 97.2833
RA_OF_ASC_NODE = 72.2568
ARG_OF_PERICENTER = 77.6653
MEAN_ANOMALY   = 70.2179

EPHEMERIS_TYPE = 0
CLASSIFICATION_TYPE = U
NORAD_CAT_ID   = 67648
ELEMENT_SET_NO = 999
REV_AT_EPOCH   = 225
BSTAR          = -.35023E-2
MEAN_MOTION_DOT = -.1571047E-1
MEAN_MOTION_DDOT = .73966E-3

